{
  "norad_id": 45431,
  "name": "ONEWEB-0031",
  "history": [
    {
      "epoch": "2026-03-28T22:09:24.050592Z",
      "apogee_km": 1219.241043993572,
      "perigee_km": 1216.115517921764,
      "latitude_deg": -4.0330331794009275e-05,
      "longitude_deg": -121.65489075783643,
      "height_km": 1220.2385240965639,
      "semi_major_axis_km": 7595.815280957668,
      "eccentricity": 0.00020574,
      "inclination_deg": 87.8894,
      "raan_deg": 37.032,
      "arg_perigee_deg": 77.9772,
      "mean_anomaly_deg": 282.1586,
      "mean_motion_rev_day": 13.11418089
    },
    {
      "epoch": "2026-03-29T03:39:00.162144Z",
      "apogee_km": 1219.2357230739726,
      "perigee_km": 1216.119919834212,
      "latitude_deg": 3.907959457516687e-05,
      "longitude_deg": 155.67354294515485,
      "height_km": 1220.2368249944,
      "semi_major_axis_km": 7595.8148214540915,
      "eccentricity": 0.0002051,
      "inclination_deg": 87.8894,
      "raan_deg": 36.9865,
      "arg_perigee_deg": 77.8925,
      "mean_anomaly_deg": 282.2433,
      "mean_motion_rev_day": 13.11418208
    }
  ]
}